CTC1_L_00050016-03
1 10062U 24566WA  26075.70030093  .00000000  00000+0  00000-0 0  9993
2 10062  70.0000 180.0000 0000000   0.0000   0.0000 15.08756051    16
CTC1_L_00050016-04
1 10063U 26420OD  26075.70030093  .00000000  00000+0  00000-0 0  9995
2 10063  70.0000 180.0000 0000000   0.0000  90.0000 15.08756051    16
CTC1_L_00050017-01
1 10064U 25065QS  26075.70030093  .00000000  00000+0  00000-0 0  9990
2 10064  70.0000 192.0000 0000000   0.0000 192.0000 15.08756051    13
CTC1_L_00050017-02
1 10065U 22319MM  26075.70030093  .00000000  00000+0  00000-0 0  9990
2 10065  70.0000 192.0000 0000000   0.0000 282.0000 15.08756051    14
CTC1_L_00050017-03
1 10066U 23551VQ  26075.70030093  .00000000  00000+0  00000-0 0  9990
2 10066  70.0000 192.0000 0000000   0.0000  12.0000 15.08756051    16
CTC1_L_00050017-04
1 10067U 24754OX  26075.70030093  .00000000  00000+0  00000-0 0  9997
2 10067  70.0000 192.0000 0000000   0.0000 102.0000 15.08756051    17
CTC1_L_00050018-01
1 10068U 25131QV  26075.70030093  .00000000  00000+0  00000-0 0  9998
2 10068  70.0000 204.0000 0000000   0.0000 204.0000 15.08756051    15
CTC1_L_00050018-02
1 10069U 23764BC  26075.70030093  .00000000  00000+0  00000-0 0  9999
2 10069  70.0000 204.0000 0000000   0.0000 294.0000 15.08756051    15
CTC1_L_00050018-03
1 10070U 26547XJ  26075.70030093  .00000000  00000+0  00000-0 0  9993
2 10070  70.0000 204.0000 0000000   0.0000  24.0000 15.08756051    18
CTC1_L_00050018-04
1 10071U 24826XB  26075.70030093  .00000000  00000+0  00000-0 0  9992
2 10071  70.0000 204.0000 0000000   0.0000 114.0000 15.08756051    19
CTC1_L_00050019-01
1 10072U 24543SC  26075.70030093  .00000000  00000+0  00000-0 0  9999
2 10072  70.0000 216.0000 0000000   0.0000 216.0000 15.08756051    16
CTC1_L_00050019-02
1 10073U 26188ZF  26075.70030093  .00000000  00000+0  00000-0 0  9997
2 10073  70.0000 216.0000 0000000   0.0000 306.0000 15.08756051    17
CTC1_L_00050019-03
1 10074U 22492PQ  26075.70030093  .00000000  00000+0  00000-0 0  9992
2 10074  70.0000 216.0000 0000000   0.0000  36.0000 15.08756051    18
CTC1_L_00050019-04
1 10075U 24316EY  26075.70030093  .00000000  00000+0  00000-0 0  9990
2 10075  70.0000 216.0000 0000000   0.0000 126.0000 15.08756051    19
CTC1_L_00050020-01
1 10076U 23305ZB  26075.70030093  .00000000  00000+0  00000-0 0  9998
2 10076  70.0000 228.0000 0000000   0.0000 228.0000 15.08756051    16
CTC1_L_00050020-02
1 10077U 23897IN  26075.70030093  .00000000  00000+0  00000-0 0  9995
2 10077  70.0000 228.0000 0000000   0.0000 318.0000 15.08756051    17
CTC1_L_00050020-03
1 10078U 25060RN  26075.70030093  .00000000  00000+0  00000-0 0  9990
2 10078  70.0000 228.0000 0000000   0.0000  48.0000 15.08756051    18
CTC1_L_00050020-04
1 10079U 26895PI  26075.70030093  .00000000  00000+0  00000-0 0  9998
2 10079  70.0000 228.0000 0000000   0.0000 138.0000 15.08756051    19
CTC1_L_00050021-01
1 10080U 26334CU  26075.70030093  .00000000  00000+0  00000-0 0  9998
2 10080  70.0000 240.0000 0000000   0.0000 240.0000 15.08756051    19
CTC1_L_00050021-02
1 10081U 24627XO  26075.70030093  .00000000  00000+0  00000-0 0  9992
2 10081  70.0000 240.0000 0000000   0.0000 330.0000 15.08756051    10
CTC1_L_00050021-03
1 10082U 22403CG  26075.70030093  .00000000  00000+0  00000-0 0  9993
2 10082  70.0000 240.0000 0000000   0.0000  60.0000 15.08756051    11
CTC1_L_00050021-04
1 10083U 24478SS  26075.70030093  .00000000  00000+0  00000-0 0  9998
2 10083  70.0000 240.0000 0000000   0.0000 150.0000 15.08756051    12
CTC1_L_00050022-01
1 10084U 26709QK  26075.70030093  .00000000  00000+0  00000-0 0  9998
2 10084  70.0000 252.0000 0000000   0.0000 252.0000 15.08756051    19
CTC1_L_00050022-02
1 10085U 22246QX  26075.70030093  .00000000  00000+0  00000-0 0  9991
2 10085  70.0000 252.0000 0000000   0.0000 342.0000 15.08756051    10
CTC1_L_00050022-03
1 10086U 25423NQ  26075.70030093  .00000000  00000+0  00000-0 0  9992
2 10086  70.0000 252.0000 0000000   0.0000  72.0000 15.08756051    11
CTC1_L_00050022-04
1 10087U 23037PR  26075.70030093  .00000000  00000+0  00000-0 0  9992
2 10087  70.0000 252.0000 0000000   0.0000 162.0000 15.08756051    12
CTC1_L_00050023-01
1 10088U 22526GT  26075.70030093  .00000000  00000+0  00000-0 0  9995
2 10088  70.0000 264.0000 0000000   0.0000 264.0000 15.08756051    19
CTC1_L_00050023-02
1 10089U 22929QR  26075.70030093  .00000000  00000+0  00000-0 0  9993
2 10089  70.0000 264.0000 0000000   0.0000 354.0000 15.08756051    10
CTC1_L_00050023-03
1 10090U 26921FG  26075.70030093  .00000000  00000+0  00000-0 0  9991
2 10090  70.0000 264.0000 0000000   0.0000  84.0000 15.08756051    12
CTC1_L_00050023-04
1 10091U 24113LP  26075.70030093  .00000000  00000+0  00000-0 0  9993
2 10091  70.0000 264.0000 0000000   0.0000 174.0000 15.08756051    13
CTC1_L_00050024-01
1 10092U 23497EI  26075.70030093  .00000000  00000+0  00000-0 0  9998
2 10092  70.0000 276.0000 0000000   0.0000 276.0000 15.08756051    10
CTC1_L_00050024-02
1 10093U 26191GD  26075.70030093  .00000000  00000+0  00000-0 0  9993
2 10093  70.0000 276.0000 0000000   0.0000   6.0000 15.08756051    12
CTC1_L_00050024-03
1 10094U 24186KS  26075.70030093  .00000000  00000+0  00000-0 0  9996
2 10094  70.0000 276.0000 0000000   0.0000  96.0000 15.08756051    12
CTC1_L_00050024-04
1 10095U 22944OE  26075.70030093  .00000000  00000+0  00000-0 0  9997
2 10095  70.0000 276.0000 0000000   0.0000 186.0000 15.08756051    13
CTC1_L_00050025-01
1 10096U 26291BH  26075.70030093  .00000000  00000+0  00000-0 0  9997
2 10096  70.0000 288.0000 0000000   0.0000 288.0000 15.08756051    10
CTC1_L_00050025-02
1 10097U 22807JK  26075.70030093  .00000000  00000+0  00000-0 0  9997
2 10097  70.0000 288.0000 0000000   0.0000  18.0000 15.08756051    12
CTC1_L_00050025-03
1 10098U 24205NI  26075.70030093  .00000000  00000+0  00000-0 0  9992
2 10098  70.0000 288.0000 0000000   0.0000 108.0000 15.08756051    13
CTC1_L_00050025-04
1 10099U 22641HG  26075.70030093  .00000000  00000+0  00000-0 0  9995
2 10099  70.0000 288.0000 0000000   0.0000 198.0000 15.08756051    13
CTC1_L_00050026-01
1 10100U 22298QT  26075.70030093  .00000000  00000+0  00000-0 0  9996
2 10100  70.0000 300.0000 0000000   0.0000 300.0000 15.08756051    16
CTC1_L_00050026-02
1 10101U 25540FY  26075.70030093  .00000000  00000+0  00000-0 0  9990
2 10101  70.0000 300.0000 0000000   0.0000  30.0000 15.08756051    17
CTC1_L_00050026-03
1 10102U 26241JL  26075.70030093  .00000000  00000+0  00000-0 0  9990
2 10102  70.0000 300.0000 0000000   0.0000 120.0000 15.08756051    18
CTC1_L_00050026-04
1 10103U 25578LY  26075.70030093  .00000000  00000+0  00000-0 0  9993
2 10103  70.0000 300.0000 0000000   0.0000 210.0000 15.08756051    19
CTC1_L_00050027-01
1 10104U 26468TM  26075.70030093  .00000000  00000+0  00000-0 0  9993
2 10104  70.0000 312.0000 0000000   0.0000 312.0000 15.08756051    16
CTC1_L_00050027-02
1 10105U 26896QF  26075.70030093  .00000000  00000+0  00000-0 0  9999
2 10105  70.0000 312.0000 0000000   0.0000  42.0000 15.08756051    17
CTC1_L_00050027-03
1 10106U 23104DF  26075.70030093  .00000000  00000+0  00000-0 0  9999
2 10106  70.0000 312.0000 0000000   0.0000 132.0000 15.08756051    18
CTC1_L_00050027-04
1 10107U 24072C   26075.70030093  .00000000  00000+0  00000-0 0  9995
2 10107  70.0000 312.0000 0000000   0.0000 222.0000 15.08756051    19
CTC1_L_00050028-01
1 10108U 23134Z   26075.70030093  .00000000  00000+0  00000-0 0  9994
2 10108  70.0000 324.0000 0000000   0.0000 324.0000 15.08756051    16
CTC1_L_00050028-02
1 10109U 25790VZ  26075.70030093  .00000000  00000+0  00000-0 0  9995
2 10109  70.0000 324.0000 0000000   0.0000  54.0000 15.08756051    17
CTC1_L_00050028-03
1 10110U 25210DK  26075.70030093  .00000000  00000+0  00000-0 0  9994
2 10110  70.0000 324.0000 0000000   0.0000 144.0000 15.08756051    19
CTC1_L_00050028-04
1 10111U 24748AW  26075.70030093  .00000000  00000+0  00000-0 0  9990
2 10111  70.0000 324.0000 0000000   0.0000 234.0000 15.08756051    10
CTC1_L_00050029-01
1 10112U 22892EU  26075.70030093  .00000000  00000+0  00000-0 0  9999
2 10112  70.0000 336.0000 0000000   0.0000 336.0000 15.08756051    17
CTC1_L_00050029-02
1 10113U 23090GR  26075.70030093  .00000000  00000+0  00000-0 0  9991
2 10113  70.0000 336.0000 0000000   0.0000  66.0000 15.08756051    18
CTC1_L_00050029-03
1 10114U 22892H   26075.70030093  .00000000  00000+0  00000-0 0  9991
2 10114  70.0000 336.0000 0000000   0.0000 156.0000 15.08756051    19
CTC1_L_00050029-04
1 10115U 24645BN  26075.70030093  .00000000  00000+0  00000-0 0  9990
2 10115  70.0000 336.0000 0000000   0.0000 246.0000 15.08756051    10
CTC1_L_00050030-01
1 10116U 23138HW  26075.70030093  .00000000  00000+0  00000-0 0  9997
2 10116  70.0000 348.0000 0000000   0.0000 348.0000 15.08756051    17
CTC1_L_00050030-02
1 10117U 22295FA  26075.70030093  .00000000  00000+0  00000-0 0  9991
2 10117  70.0000 348.0000 0000000   0.0000  78.0000 15.08756051    18
CTC1_L_00050030-03
1 10118U 22680IS  26075.70030093  .00000000  00000+0  00000-0 0  9990
2 10118  70.0000 348.0000 0000000   0.0000 168.0000 15.08756051    19
CTC1_L_00050030-04
1 10119U 25759UP  26075.70030093  .00000000  00000+0  00000-0 0  9991
2 10119  70.0000 348.0000 0000000   0.0000 258.0000 15.08756051    10
